[{"OBJECT_NAME":"GSAT0218 (GALILEO 22)","OBJECT_ID":"2017-079D","EPOCH":"2026-03-04T17:59:13.370784","MEAN_MOTION":1.70474529,"ECCENTRICITY":0.00019211,"INCLINATION":55.1048,"RA_OF_ASC_NODE":224.373,"ARG_OF_PERICENTER":303.9467,"MEAN_ANOMALY":55.9718,"EPHEMERIS_TYPE":0,"CLASSIFICATION_TYPE":"U","NORAD_CAT_ID":43058,"ELEMENT_SET_NO":999,"REV_AT_EPOCH":5123,"BSTAR":0,"MEAN_MOTION_DOT":1.3e-7,"MEAN_MOTION_DDOT":0},{"OBJECT_NAME":"GOES 17","OBJECT_ID":"2018-022A","EPOCH":"2026-03-06T13:31:59.435040","MEAN_MOTION":1.0027016,"ECCENTRICITY":0.00021284,"INCLINATION":0.6735,"RA_OF_ASC_NODE":87.5071,"ARG_OF_PERICENTER":225.3094,"MEAN_ANOMALY":324.9405,"EPHEMERIS_TYPE":0,"CLASSIFICATION_TYPE":"U","NORAD_CAT_ID":43226,"ELEMENT_SET_NO":999,"REV_AT_EPOCH":2939,"BSTAR":0,"MEAN_MOTION_DOT":-1.86e-6,"MEAN_MOTION_DDOT":0},{"OBJECT_NAME":"GSAT0221 (GALILEO 25)","OBJECT_ID":"2018-060A","EPOCH":"2026-02-28T13:07:14.911104","MEAN_MOTION":1.70475369,"ECCENTRICITY":0.00058048,"INCLINATION":57.2051,"RA_OF_ASC_NODE":344.7173,"ARG_OF_PERICENTER":306.7848,"MEAN_ANOMALY":53.1689,"EPHEMERIS_TYPE":0,"CLASSIFICATION_TYPE":"U","NORAD_CAT_ID":43564,"ELEMENT_SET_NO":999,"REV_AT_EPOCH":4731,"BSTAR":0,"MEAN_MOTION_DOT":-1.05e-6,"MEAN_MOTION_DDOT":0},{"OBJECT_NAME":"GSAT0222 (GALILEO 26)","OBJECT_ID":"2018-060B","EPOCH":"2026-02-24T15:50:30.088608","MEAN_MOTION":1.70474973,"ECCENTRICITY":0.0004435,"INCLINATION":57.2093,"RA_OF_ASC_NODE":344.8256,"ARG_OF_PERICENTER":285.482,"MEAN_ANOMALY":74.4799,"EPHEMERIS_TYPE":0,"CLASSIFICATION_TYPE":"U","NORAD_CAT_ID":43565,"ELEMENT_SET_NO":999,"REV_AT_EPOCH":4729,"BSTAR":0,"MEAN_MOTION_DOT":-9.2e-7,"MEAN_MOTION_DDOT":0},{"OBJECT_NAME":"GSAT0219 (GALILEO 23)","OBJECT_ID":"2018-060C","EPOCH":"2026-03-06T06:23:48.861600","MEAN_MOTION":1.70475265,"ECCENTRICITY":0.00049336,"INCLINATION":57.2056,"RA_OF_ASC_NODE":344.5677,"ARG_OF_PERICENTER":321.2111,"MEAN_ANOMALY":38.7755,"EPHEMERIS_TYPE":0,"CLASSIFICATION_TYPE":"U","NORAD_CAT_ID":43566,"ELEMENT_SET_NO":999,"REV_AT_EPOCH":4743,"BSTAR":0,"MEAN_MOTION_DOT":-1.04e-6,"MEAN_MOTION_DDOT":0},{"OBJECT_NAME":"GSAT0220 (GALILEO 24)","OBJECT_ID":"2018-060D","EPOCH":"2026-02-27T10:45:41.962176","MEAN_MOTION":1.70475159,"ECCENTRICITY":0.0005301,"INCLINATION":57.2075,"RA_OF_ASC_NODE":344.7516,"ARG_OF_PERICENTER":308.5821,"MEAN_ANOMALY":51.3768,"EPHEMERIS_TYPE":0,"CLASSIFICATION_TYPE":"U","NORAD_CAT_ID":43567,"ELEMENT_SET_NO":999,"REV_AT_EPOCH":4730,"BSTAR":0,"MEAN_MOTION_DOT":-1.02e-6,"MEAN_MOTION_DDOT":0},{"OBJECT_NAME":"BEIDOU-3 M13","OBJECT_ID":"2018-072A","EPOCH":"2026-03-04T19:54:34.683840","MEAN_MOTION":1.86230808,"ECCENTRICITY":0.0008916,"INCLINATION":56.5333,"RA_OF_ASC_NODE":66.1018,"ARG_OF_PERICENTER":307.8246,"MEAN_ANOMALY":52.1164,"EPHEMERIS_TYPE":0,"CLASSIFICATION_TYPE":"U","NORAD_CAT_ID":43622,"ELEMENT_SET_NO":999,"REV_AT_EPOCH":5071,"BSTAR":0,"MEAN_MOTION_DOT":-2.9e-7,"MEAN_MOTION_DDOT":0},{"OBJECT_NAME":"BEIDOU-3 M14","OBJECT_ID":"2018-072B","EPOCH":"2026-03-04T16:40:50.255904","MEAN_MOTION":1.86230841,"ECCENTRICITY":0.0006376,"INCLINATION":56.535,"RA_OF_ASC_NODE":66.1003,"ARG_OF_PERICENTER":328.815,"MEAN_ANOMALY":31.1695,"EPHEMERIS_TYPE":0,"CLASSIFICATION_TYPE":"U","NORAD_CAT_ID":43623,"ELEMENT_SET_NO":999,"REV_AT_EPOCH":5070,"BSTAR":0,"MEAN_MOTION_DOT":-2.8e-7,"MEAN_MOTION_DDOT":0},{"OBJECT_NAME":"GPS BIII-1","OBJECT_ID":"2018-109A","EPOCH":"2026-03-06T13:04:28.642080","MEAN_MOTION":2.00556975,"ECCENTRICITY":0.00379513,"INCLINATION":55.6164,"RA_OF_ASC_NODE":96.2348,"ARG_OF_PERICENTER":198.3878,"MEAN_ANOMALY":333.9441,"EPHEMERIS_TYPE":0,"CLASSIFICATION_TYPE":"U","NORAD_CAT_ID":43873,"ELEMENT_SET_NO":999,"REV_AT_EPOCH":5301,"BSTAR":0,"MEAN_MOTION_DOT":-4.0e-8,"MEAN_MOTION_DDOT":0},{"OBJECT_NAME":"METEOR-M2 2","OBJECT_ID":"2019-038A","EPOCH":"2026-03-06T21:28:39.944928","MEAN_MOTION":14.24331679,"ECCENTRICITY":0.0001043,"INCLINATION":98.9084,"RA_OF_ASC_NODE":51.7073,"ARG_OF_PERICENTER":9.6559,"MEAN_ANOMALY":350.4639,"EPHEMERIS_TYPE":0,"CLASSIFICATION_TYPE":"U","NORAD_CAT_ID":44387,"ELEMENT_SET_NO":999,"REV_AT_EPOCH":34673,"BSTAR":-4.8402e-5,"MEAN_MOTION_DOT":-1.58e-6,"MEAN_MOTION_DDOT":0},{"OBJECT_NAME":"GPS BIII-2","OBJECT_ID":"2019-056A","EPOCH":"2026-03-06T04:23:28.854240","MEAN_MOTION":2.00568454,"ECCENTRICITY":0.00580462,"INCLINATION":55.6839,"RA_OF_ASC_NODE":335.2387,"ARG_OF_PERICENTER":198.0933,"MEAN_ANOMALY":333.3685,"EPHEMERIS_TYPE":0,"CLASSIFICATION_TYPE":"U","NORAD_CAT_ID":44506,"ELEMENT_SET_NO":999,"REV_AT_EPOCH":4800,"BSTAR":0,"MEAN_MOTION_DOT":-1.0e-6,"MEAN_MOTION_DDOT":0},{"OBJECT_NAME":"BEIDOU-3 M24","OBJECT_ID":"2019-061A","EPOCH":"2026-03-06T03:31:39.524736","MEAN_MOTION":1.86228818,"ECCENTRICITY":0.00085835,"INCLINATION":54.399,"RA_OF_ASC_NODE":186.2022,"ARG_OF_PERICENTER":21.0011,"MEAN_ANOMALY":339.0071,"EPHEMERIS_TYPE":0,"CLASSIFICATION_TYPE":"U","NORAD_CAT_ID":44542,"ELEMENT_SET_NO":999,"REV_AT_EPOCH":4387,"BSTAR":0,"MEAN_MOTION_DOT":1.2e-7,"MEAN_MOTION_DDOT":0},{"OBJECT_NAME":"BEIDOU-3 M23","OBJECT_ID":"2019-061B","EPOCH":"2026-03-06T19:32:02.410656","MEAN_MOTION":1.86227427,"ECCENTRICITY":0.0005058,"INCLINATION":54.3975,"RA_OF_ASC_NODE":186.1481,"ARG_OF_PERICENTER":13.8953,"MEAN_ANOMALY":345.4949,"EPHEMERIS_TYPE":0,"CLASSIFICATION_TYPE":"U","NORAD_CAT_ID":44543,"ELEMENT_SET_NO":999,"REV_AT_EPOCH":4388,"BSTAR":0,"MEAN_MOTION_DOT":1.6e-7,"MEAN_MOTION_DDOT":0},{"OBJECT_NAME":"BEIDOU-3 M22","OBJECT_ID":"2019-078A","EPOCH":"2026-03-04T09:00:38.803968","MEAN_MOTION":1.86231851,"ECCENTRICITY":0.0007273,"INCLINATION":54.0307,"RA_OF_ASC_NODE":303.5169,"ARG_OF_PERICENTER":35.6258,"MEAN_ANOMALY":324.4804,"EPHEMERIS_TYPE":0,"CLASSIFICATION_TYPE":"U","NORAD_CAT_ID":44793,"ELEMENT_SET_NO":999,"REV_AT_EPOCH":4269,"BSTAR":0,"MEAN_MOTION_DOT":-6.0e-7,"MEAN_MOTION_DDOT":0},{"OBJECT_NAME":"BEIDOU-3 M21","OBJECT_ID":"2019-078B","EPOCH":"2026-03-03T23:28:24.953376","MEAN_MOTION":1.86227541,"ECCENTRICITY":0.00059118,"INCLINATION":54.0042,"RA_OF_ASC_NODE":303.4937,"ARG_OF_PERICENTER":39.9322,"MEAN_ANOMALY":320.1697,"EPHEMERIS_TYPE":0,"CLASSIFICATION_TYPE":"U","NORAD_CAT_ID":44794,"ELEMENT_SET_NO":999,"REV_AT_EPOCH":4269,"BSTAR":0,"MEAN_MOTION_DOT":-5.8e-7,"MEAN_MOTION_DDOT":0},{"OBJECT_NAME":"ELEKTRO-L 3","OBJECT_ID":"2019-095A","EPOCH":"2026-03-06T17:45:38.749248","MEAN_MOTION":1.00270371,"ECCENTRICITY":0.0001638,"INCLINATION":0.0441,"RA_OF_ASC_NODE":316.7449,"ARG_OF_PERICENTER":18.7176,"MEAN_ANOMALY":171.344,"EPHEMERIS_TYPE":0,"CLASSIFICATION_TYPE":"U","NORAD_CAT_ID":44903,"ELEMENT_SET_NO":999,"REV_AT_EPOCH":2268,"BSTAR":0,"MEAN_MOTION_DOT":-9.9e-7,"MEAN_MOTION_DDOT":0},{"OBJECT_NAME":"GPS BIII-3","OBJECT_ID":"2020-041A","EPOCH":"2026-03-06T12:27:43.764192","MEAN_MOTION":2.00560728,"ECCENTRICITY":0.00614306,"INCLINATION":56.6073,"RA_OF_ASC_NODE":32.9268,"ARG_OF_PERICENTER":205.2409,"MEAN_ANOMALY":151.126,"EPHEMERIS_TYPE":0,"CLASSIFICATION_TYPE":"U","NORAD_CAT_ID":45854,"ELEMENT_SET_NO":999,"REV_AT_EPOCH":4197,"BSTAR":0,"MEAN_MOTION_DOT":-8.1e-7,"MEAN_MOTION_DDOT":0}]
